NORAD_CAT_ID,OBJECT_NAME,OBJECT_TYPE,EPOCH,MEAN_MOTION,ECCENTRICITY,INCLINATION,RA_OF_ASC_NODE,ARG_OF_PERICENTER,MEAN_ANOMALY,BSTAR,MEAN_MOTION_DOT,MEAN_MOTION_DDOT,TLE_LINE0,TLE_LINE1,TLE_LINE2,SEMIMAJOR_AXIS,PERIOD,APOGEE,PERIGEE,DECAYED
53156.0,STARLINK-4087,PAYLOAD,2022-09-16 22:00:00,15.41432749,0.000125,53.2173,106.0151,66.3026,252.423,-0.027466,-0.01071858,0.0,0 STARLINK-4087,1 53156U 22083AA  22259.91667824 -.01071858  00000-0 -27466-1 0  9996,2 53156  53.2173 106.0151 0001250  66.3026 252.4230 15.41432749  1300,6820.017,93.42,442.734,441.029,0.0
53156.0,STARLINK-4087,PAYLOAD,2022-09-17 14:00:01,15.39911454,0.0001199999999999,53.2174,102.8692,70.2652,348.1351,-0.028766,-0.01067427,0.0,0 STARLINK-4087,1 53156U 22083AA  22260.58334491 -.01067427  00000-0 -28766-1 0  9993,2 53156  53.2174 102.8692 0001200  70.2652 348.1351 15.39911454  1308,6824.5080000000025,93.512,447.192,445.554,0.0
53156.0,STARLINK-4087,PAYLOAD,2022-09-17 22:00:00,15.39154069,0.0001367,53.2174,101.3021,62.81100000000001,44.0549,-0.0296089999999999,-0.01071221,0.0,0 STARLINK-4087,1 53156U 22083AA  22260.91667824 -.01071221  00000-0 -29609-1 0  9993,2 53156  53.2174 101.3021 0001367  62.8110  44.0549 15.39154069  1300,6826.746999999999,93.558,449.545,447.67800000000005,0.0
53156.0,STARLINK-4087,PAYLOAD,2022-09-18 14:00:01,15.37633615,0.0001389,53.2175,98.1673,74.3456,126.7824,-0.031019,-0.01067863,0.0,0 STARLINK-4087,1 53156U 22083AA  22261.58335648 -.01067863  00000-0 -31019-1 0  9998,2 53156  53.2175  98.1673 0001389  74.3456 126.7824 15.37633615  1303,6831.246,93.65,454.06,452.162,0.0
53156.0,STARLINK-4087,PAYLOAD,2022-09-18 22:00:00,15.36873554,0.0001396999999999,53.2176,96.6054,67.4608,179.3318,-0.03177,-0.01067027,0.0,0 STARLINK-4087,1 53156U 22083AA  22261.91667824 -.01067027  00000-0 -31770-1 0  9995,2 53156  53.2176  96.6054 0001397  67.4608 179.3318 15.36873554  1300,6833.498000000001,93.697,456.318,454.409,0.0
53156.0,STARLINK-4087,PAYLOAD,2022-09-19 14:00:01,15.35355206,0.0001177,53.2177,93.4815,76.1195,259.3945,-0.033391,-0.01067607,0.0,0 STARLINK-4087,1 53156U 22083AA  22262.58334491 -.01067607  00000-0 -33391-1 0  9995,2 53156  53.2177  93.4815 0001177  76.1195 259.3945 15.35355206  1308,6838.003000000002,93.789,460.672,459.06300000000016,0.0
53156.0,STARLINK-4087,PAYLOAD,2022-09-19 22:00:00,15.34596146,0.0001308,53.2176,91.9249,56.2411,322.2634,-0.03427,-0.01069211,0.0,0 STARLINK-4087,1 53156U 22083AA  22262.91667824 -.01069211  00000-0 -34270-1 0  9991,2 53156  53.2176  91.9249 0001308  56.2411 322.2634 15.34596146  1301,6840.257,93.836,463.017,461.228,0.0
53156.0,STARLINK-4087,PAYLOAD,2022-09-20 14:00:01,15.33075817,0.0001393,53.2177,88.8118,59.0486,42.7022,-0.035875,-0.01066578,0.0,0 STARLINK-4087,1 53156U 22083AA  22263.58334491 -.01066578  00000-0 -35875-1 0  9991,2 53156  53.2177  88.8118 0001393  59.0486  42.7022 15.33075817  1300,6844.779,93.929,467.597,465.69,0.0
53156.0,STARLINK-4087,PAYLOAD,2022-09-20 22:00:01,15.32314776,0.0001551999999999,53.2176,87.2605,53.5326,88.5351,-0.03666,-0.0106422,0.0,0 STARLINK-4087,1 53156U 22083AA  22263.91668981 -.01064220  00000-0 -36660-1 0  9997,2 53156  53.2176  87.2605 0001552  53.5326  88.5351 15.32314776 10887,6847.045,93.975,469.973,467.847,0.0
53156.0,STARLINK-4087,PAYLOAD,2022-09-21 22:00:00,15.30035598,0.000145,53.2176,82.6124,60.4484,196.8396,-0.039291,-0.01062108,0.0,0 STARLINK-4087,1 53156U 22083AA  22264.91667824 -.01062108  00000-0 -39291-1 0  9999,2 53156  53.2176  82.6124 0001450  60.4484 196.8396 15.30035598  1300,6853.843000000003,94.115,476.702,474.714,0.0
53156.0,STARLINK-4087,PAYLOAD,2022-09-22 14:00:01,15.28504503,0.0001236,53.2168,79.5218,75.1752,254.4124,-0.040546,-0.0104657,0.0,0 STARLINK-4087,1 53156U 22083AA  22265.58334491 -.01046570  00000-0 -40546-1 0  9994,2 53156  53.2168  79.5218 0001236  75.1752 254.4124 15.28504503 11139,6858.419,94.21,481.132,479.436,0.0
53156.0,STARLINK-4087,PAYLOAD,2022-09-22 22:00:00,15.277663699999998,0.0001311,53.2168,77.9818,64.4832,299.8694,-0.042688,-0.01074616,0.0,0 STARLINK-4087,1 53156U 22083AA  22265.91667824 -.01074616  00000-0 -42688-1 0  9991,2 53156  53.2168  77.9818 0001311  64.4832 299.8694 15.27766370  1305,6860.628000000002,94.255,483.393,481.594,0.0
53156.0,STARLINK-4087,PAYLOAD,2022-09-23 06:00:00,15.269992000000002,0.0001217999999999,53.2175,76.4381,63.0441,335.1797,-0.043291,-0.01065301,0.0,0 STARLINK-4087,1 53156U 22083AA  22266.25001157 -.01065301  00000-0 -43291-1 0  9992,2 53156  53.2175  76.4381 0001218  63.0441 335.1797 15.26999200 11240,6862.926,94.303,485.627,483.955,0.0
53156.0,STARLINK-4087,PAYLOAD,2022-09-23 14:00:01,15.26264237,0.000131,53.2168,74.9006,74.9388,356.2228,-0.045696,-0.01096692,0.0,0 STARLINK-4087,1 53156U 22083AA  22266.58334491 -.01096692  00000-0 -45696-1 0  9996,2 53156  53.2168  74.9006 0001310  74.9388 356.2228 15.26264237  1307,6865.129,94.348,487.893,486.094,0.0
53156.0,STARLINK-4087,PAYLOAD,2022-09-23 22:00:00,15.25483508,0.0001453,53.2166,73.3657,63.7706,39.4405,-0.045471,-0.01068317,0.0,0 STARLINK-4087,1 53156U 22083AA  22266.91667824 -.01068317  00000-0 -45471-1 0  9996,2 53156  53.2166  73.3657 0001453  63.7706  39.4405 15.25483508  1308,6867.471,94.396,490.334,488.338,0.0
53156.0,STARLINK-4087,PAYLOAD,2022-09-24 06:00:00,15.24717871,0.0001443,53.2172,71.8279,63.7883,70.5548,-0.046179,-0.01060816,0.0,0 STARLINK-4087,1 53156U 22083AA  22267.25001157 -.01060816  00000-0 -46179-1 0  9997,2 53156  53.2172  71.8279 0001443  63.7883  70.5548 15.24717871 11399,6869.77,94.444,492.626,490.643,0.0
53156.0,STARLINK-4087,PAYLOAD,2022-09-24 14:00:01,15.24010464,0.0001314,53.2167,70.2955,77.0021,87.5901,-0.0504709999999999,-0.01143495,0.0,0 STARLINK-4087,1 53156U 22083AA  22267.58335648 -.01143495  00000-0 -50471-1 0  9993,2 53156  53.2167  70.2955 0001314  77.0021  87.5901 15.24010464  1301,6871.895,94.488,494.663,492.857,0.0
53156.0,STARLINK-4087,PAYLOAD,2022-09-24 22:00:00,15.23197616,0.0001388,53.2173,68.7643,76.6145,117.2432,-0.048167,-0.01057443,0.0,0 STARLINK-4087,1 53156U 22083AA  22267.91667824 -.01057443  00000-0 -48167-1 0  9990,2 53156  53.2173  68.7643 0001388  76.6145 117.2432 15.23197616  1301,6874.34,94.538,497.159,495.251,0.0
53156.0,STARLINK-4087,PAYLOAD,2022-09-25 06:00:00,15.22440338,0.0001374,53.2174,67.2327,75.1931,147.0537,-0.049451,-0.01061078,0.0,0 STARLINK-4087,1 53156U 22083AA  22268.25001157 -.01061078  00000-0 -49451-1 0  9995,2 53156  53.2174  67.2327 0001374  75.1931 147.0537 15.22440338 11542,6876.619000000002,94.585,499.429,497.54,0.0
53156.0,STARLINK-4087,PAYLOAD,2022-09-25 14:00:01,15.21681558,0.0001382,53.2176,65.7056,75.428,174.2941,-0.050638,-0.01062257,0.0,0 STARLINK-4087,1 53156U 22083AA  22268.58334491 -.01062257  00000-0 -50638-1 0  9990,2 53156  53.2176  65.7056 0001382  75.4280 174.2941 15.21681558  1309,6878.905,94.632,501.721,499.82,0.0
53156.0,STARLINK-4087,PAYLOAD,2022-09-25 22:00:01,15.20920653,0.0001348,53.2172,64.1803,67.6052,208.7434,-0.051632,-0.01059298,0.0,0 STARLINK-4087,1 53156U 22083AA  22268.91668981 -.01059298  00000-0 -51632-1 0  9997,2 53156  53.2172  64.1803 0001348  67.6052 208.7434 15.20920653  1301,6881.199000000001,94.679,503.992,502.137,0.0
53156.0,STARLINK-4087,PAYLOAD,2022-09-26 10:00:00,15.19783353,0.0001431999999999,53.2176,61.8923,68.6461,65.7736,-0.053572,-0.01062697,0.0,0 STARLINK-4087,1 53156U 22083AA  22269.41667824 -.01062697  00000-0 -53572-1 0  9990,2 53156  53.2176  61.8923 0001432  68.6461  65.7736 15.19783353 11726,6884.632,94.75,507.483,505.511,0.0
53156.0,STARLINK-4087,PAYLOAD,2022-09-26 14:00:01,15.19416933,0.000123,53.2168,61.1331,88.0668,238.6,-0.055146,-0.01094461,0.0,0 STARLINK-4087,1 53156U 22083AA  22269.58334491 -.01094461  00000-0 -55146-1 0  9992,2 53156  53.2168  61.1331 0001230  88.0668 238.6000 15.19416933  1309,6885.739000000001,94.773,508.451,506.757,0.0
53156.0,STARLINK-4087,PAYLOAD,2022-09-26 22:00:00,15.18649943,0.0001267,53.2164,59.6137,68.1821,282.3126,-0.055767,-0.01083218,0.0,0 STARLINK-4087,1 53156U 22083AA  22269.91667824 -.01083218  00000-0 -55767-1 0  9995,2 53156  53.2164  59.6137 0001267  68.1821 282.3126 15.18649943  1304,6888.057,94.821,510.795,509.049,0.0
53156.0,STARLINK-4087,PAYLOAD,2022-09-27 06:00:00,15.17881786,0.0001189999999999,53.2173,58.0914,69.2684,304.1457,-0.056389,-0.01072022,0.0,0 STARLINK-4087,1 53156U 22083AA  22270.25001157 -.01072022  00000-0 -56389-1 0  9997,2 53156  53.2173  58.0914 0001190  69.2684 304.1457 15.17881786 11857,6890.380999999999,94.869,513.066,511.426,0.0
53156.0,STARLINK-4087,PAYLOAD,2022-09-27 14:00:01,15.17138268,0.0001217999999999,53.2168,56.5761,82.9256,312.4797,-0.058918,-0.01094534,0.0,0 STARLINK-4087,1 53156U 22083AA  22270.58334491 -.01094534  00000-0 -58918-1 0  9995,2 53156  53.2168  56.5761 0001218  82.9256 312.4797 15.17138268  1300,6892.632,94.916,515.336,513.6569999999998,0.0
53156.0,STARLINK-4087,PAYLOAD,2022-09-27 22:00:01,15.16350511,0.0001323,53.2163,55.0618,68.3954,348.1727,-0.057819,-0.01053225,0.0,0 STARLINK-4087,1 53156U 22083AA  22270.91668981 -.01053225  00000-0 -57819-1 0  9997,2 53156  53.2163  55.0618 0001323  68.3954 348.1727 15.16350511  1305,6895.019,94.965,517.7959999999998,515.971,0.0
53156.0,STARLINK-4087,PAYLOAD,2022-09-28 06:00:00,15.15603796,0.000127,53.2173,53.5446,70.4379,6.2385,-0.06026,-0.01072934,0.0,0 STARLINK-4087,1 53156U 22083AA  22271.25001157 -.01072934  00000-0 -60260-1 0  9993,2 53156  53.2173  53.5446 0001270  70.4379   6.2385 15.15603796 12000,6897.283,95.012,520.024,518.2719999999998,0.0
53156.0,STARLINK-4087,PAYLOAD,2022-09-28 14:00:01,15.14845918,0.0001371,53.2175,52.0339,68.479,27.4581,-0.061725,-0.01075357,0.0,0 STARLINK-4087,1 53156U 22083AA  22271.58334491 -.01075357  00000-0 -61725-1 0  9998,2 53156  53.2175  52.0339 0001371  68.4790  27.4581 15.14845918  1300,6899.583000000001,95.059,522.394,520.502,0.0
